{
  "type": "FeatureCollection",
  "features": [
    {
      "type": "Feature",
      "properties": {
        "norad_id": 35442,
        "name": "COSMOS 2251 DEB",
        "group": "cosmos-2251-debris",
        "lat": 30.664262453802205,
        "lon": 118.74727416531732,
        "alt_km": 613.8411818809991,
        "timestamp": "2025-12-07T18:50:17.110926+00:00",
        "meta_object_name": "COSMOS 2251 DEB",
        "meta_object_id": "1993-036AKL",
        "meta_epoch": "2025-12-06T15:11:28.207968",
        "meta_mean_motion": 14.84048486,
        "meta_eccentricity": 0.00042143,
        "meta_inclination": 74.0268,
        "meta_ra_of_asc_node": 111.2533,
        "meta_arg_of_pericenter": 115.5873,
        "meta_mean_anomaly": 244.5741,
        "meta_ephemeris_type": 0,
        "meta_classification_type": "U",
        "meta_norad_cat_id": 35442,
        "meta_element_set_no": 999,
        "meta_rev_at_epoch": 87262,
        "meta_bstar": 0.0050286064,
        "meta_mean_motion_dot": 0.00042157,
        "meta_mean_motion_ddot": 0,
        "tle_line1": "1 35442U 93036AKL 25340.63296537  .00042157  00000+0  50286-2 0  9995",
        "tle_line2": "2 35442  74.0268 111.2533 0004214 115.5873 244.5741 14.84048486872623"
      },
      "geometry": {
        "type": "Point",
        "coordinates": [
          118.74727416531732,
          30.664262453802205
        ]
      }
    },
    {
      "type": "Feature",
      "properties": {
        "norad_id": 35443,
        "name": "COSMOS 2251 DEB",
        "group": "cosmos-2251-debris",
        "lat": -29.31141470559253,
        "lon": 170.91734875333307,
        "alt_km": 580.0747657748516,
        "timestamp": "2025-12-07T18:50:17.110936+00:00",
        "meta_object_name": "COSMOS 2251 DEB",
        "meta_object_id": "1993-036AKM",
        "meta_epoch": "2025-12-07T06:40:22.370016",
        "meta_mean_motion": 14.96055999,
        "meta_eccentricity": 0.00734187,
        "meta_inclination": 73.986,
        "meta_ra_of_asc_node": 342.6647,
        "meta_arg_of_pericenter": 126.2083,
        "meta_mean_anomaly": 234.592,
        "meta_ephemeris_type": 0,
        "meta_classification_type": "U",
        "meta_norad_cat_id": 35443,
        "meta_element_set_no": 999,
        "meta_rev_at_epoch": 86796,
        "meta_bstar": 0.0051168321,
        "meta_mean_motion_dot": 0.0006117,
        "meta_mean_motion_ddot": 0,
        "tle_line1": "1 35443U 93036AKM 25341.27803669  .00061170  00000+0  51168-2 0  9993",
        "tle_line2": "2 35443  73.9860 342.6647 0073418 126.2083 234.5920 14.96055999867969"
      },
      "geometry": {
        "type": "Point",
        "coordinates": [
          170.91734875333307,
          -29.31141470559253
        ]
      }
    },
    {
      "type": "Feature",
      "properties": {
        "norad_id": 35445,
        "name": "COSMOS 2251 DEB",
        "group": "cosmos-2251-debris",
        "lat": -9.251924486458188,
        "lon": 132.1221662142335,
        "alt_km": 789.4885239191608,
        "timestamp": "2025-12-07T18:50:17.110946+00:00",
        "meta_object_name": "COSMOS 2251 DEB",
        "meta_object_id": "1993-036AKP",
        "meta_epoch": "2025-12-06T22:13:57.265536",
        "meta_mean_motion": 14.58958102,
        "meta_eccentricity": 0.01436286,
        "meta_inclination": 74.0374,
        "meta_ra_of_asc_node": 311.0852,
        "meta_arg_of_pericenter": 39.494,
        "meta_mean_anomaly": 321.6585,
        "meta_ephemeris_type": 0,
        "meta_classification_type": "U",
        "meta_norad_cat_id": 35445,
        "meta_element_set_no": 999,
        "meta_rev_at_epoch": 87244,
        "meta_bstar": 0.0028679894,
        "meta_mean_motion_dot": 0.00015537,
        "meta_mean_motion_ddot": 0,
        "tle_line1": "1 35445U 93036AKP 25340.92635724  .00015537  00000+0  28680-2 0  9990",
        "tle_line2": "2 35445  74.0374 311.0852 0143628  39.4940 321.6585 14.58958102872449"
      },
      "geometry": {
        "type": "Point",
        "coordinates": [
          132.1221662142335,
          -9.251924486458188
        ]
      }
    },
    {
      "type": "Feature",
      "properties": {
        "norad_id": 35446,
        "name": "COSMOS 2251 DEB",
        "group": "cosmos-2251-debris",
        "lat": -53.292426543520286,
        "lon": -55.0088910536929,
        "alt_km": 759.6052251473757,
        "timestamp": "2025-12-07T18:50:17.110956+00:00",
        "meta_object_name": "COSMOS 2251 DEB",
        "meta_object_id": "1993-036AKQ",
        "meta_epoch": "2025-12-05T17:34:52.262112",
        "meta_mean_motion": 14.54618421,
        "meta_eccentricity": 0.00744002,
        "meta_inclination": 74.0466,
        "meta_ra_of_asc_node": 331.4309,
        "meta_arg_of_pericenter": 91.6694,
        "meta_mean_anomaly": 269.2992,
        "meta_ephemeris_type": 0,
        "meta_classification_type": "U",
        "meta_norad_cat_id": 35446,
        "meta_element_set_no": 999,
        "meta_rev_at_epoch": 87906,
        "meta_bstar": 0.00018901942,
        "meta_mean_motion_dot": 8.08e-06,
        "meta_mean_motion_ddot": 0,
        "tle_line1": "1 35446U 93036AKQ 25339.73254933  .00000808  00000+0  18902-3 0  9999",
        "tle_line2": "2 35446  74.0466 331.4309 0074400  91.6694 269.2992 14.54618421879069"
      },
      "geometry": {
        "type": "Point",
        "coordinates": [
          -55.0088910536929,
          -53.292426543520286
        ]
      }
    },
    {
      "type": "Feature",
      "properties": {
        "norad_id": 35448,
        "name": "COSMOS 2251 DEB",
        "group": "cosmos-2251-debris",
        "lat": 9.73073365310377,
        "lon": -83.88461791506147,
        "alt_km": 715.8118258474178,
        "timestamp": "2025-12-07T18:50:17.110966+00:00",
        "meta_object_name": "COSMOS 2251 DEB",
        "meta_object_id": "1993-036AKS",
        "meta_epoch": "2025-12-05T14:52:31.418112",
        "meta_mean_motion": 14.54160371,
        "meta_eccentricity": 0.00112149,
        "meta_inclination": 73.9027,
        "meta_ra_of_asc_node": 103.0785,
        "meta_arg_of_pericenter": 283.351,
        "meta_mean_anomaly": 76.6401,
        "meta_ephemeris_type": 0,
        "meta_classification_type": "U",
        "meta_norad_cat_id": 35448,
        "meta_element_set_no": 999,
        "meta_rev_at_epoch": 87231,
        "meta_bstar": 0.0022626974,
        "meta_mean_motion_dot": 9.564e-05,
        "meta_mean_motion_ddot": 0,
        "tle_line1": "1 35448U 93036AKS 25339.61980808  .00009564  00000+0  22627-2 0  9991",
        "tle_line2": "2 35448  73.9027 103.0785 0011214 283.3510  76.6401 14.54160371872316"
      },
      "geometry": {
        "type": "Point",
        "coordinates": [
          -83.88461791506147,
          9.73073365310377
        ]
      }
    },
    {
      "type": "Feature",
      "properties": {
        "norad_id": 35451,
        "name": "COSMOS 2251 DEB",
        "group": "cosmos-2251-debris",
        "lat": -8.259162569608193,
        "lon": -64.235999921207,
        "alt_km": 492.1683598521595,
        "timestamp": "2025-12-07T18:50:17.110976+00:00",
        "meta_object_name": "COSMOS 2251 DEB",
        "meta_object_id": "1993-036AKV",
        "meta_epoch": "2025-12-06T15:25:27.582240",
        "meta_mean_motion": 15.34695417,
        "meta_eccentricity": 0.00402272,
        "meta_inclination": 73.932,
        "meta_ra_of_asc_node": 115.8295,
        "meta_arg_of_pericenter": 3.0186,
        "meta_mean_anomaly": 357.1253,
        "meta_ephemeris_type": 0,
        "meta_classification_type": "U",
        "meta_norad_cat_id": 35451,
        "meta_element_set_no": 999,
        "meta_rev_at_epoch": 67312,
        "meta_bstar": 0.0023728301,
        "meta_mean_motion_dot": 0.00082777,
        "meta_mean_motion_ddot": 0,
        "tle_line1": "1 35451U 93036AKV 25340.64268035  .00082777  00000+0  23728-2 0  9991",
        "tle_line2": "2 35451  73.9320 115.8295 0040227   3.0186 357.1253 15.34695417673128"
      },
      "geometry": {
        "type": "Point",
        "coordinates": [
          -64.235999921207,
          -8.259162569608193
        ]
      }
    },
    {
      "type": "Feature",
      "properties": {
        "norad_id": 35453,
        "name": "COSMOS 2251 DEB",
        "group": "cosmos-2251-debris",
        "lat": 26.175438908940475,
        "lon": -158.5832119122753,
        "alt_km": 716.5127332324155,
        "timestamp": "2025-12-07T18:50:17.110986+00:00",
        "meta_object_name": "COSMOS 2251 DEB",
        "meta_object_id": "1993-036AKX",
        "meta_epoch": "2025-12-02T12:53:58.122528",
        "meta_mean_motion": 14.3790654,
        "meta_eccentricity": 0.00680216,
        "meta_inclination": 74.0102,
        "meta_ra_of_asc_node": 39.1945,
        "meta_arg_of_pericenter": 175.6131,
        "meta_mean_anomaly": 184.5634,
        "meta_ephemeris_type": 0,
        "meta_classification_type": "U",
        "meta_norad_cat_id": 35453,
        "meta_element_set_no": 999,
        "meta_rev_at_epoch": 86072,
        "meta_bstar": 0.00098540606,
        "meta_mean_motion_dot": 3.03e-05,
        "meta_mean_motion_ddot": 0,
        "tle_line1": "1 35453U 93036AKX 25336.53747827  .00003030  00000+0  98541-3 0  9998",
        "tle_line2": "2 35453  74.0102  39.1945 0068021 175.6131 184.5634 14.37906540860721"
      },
      "geometry": {
        "type": "Point",
        "coordinates": [
          -158.5832119122753,
          26.175438908940475
        ]
      }
    }
  ]
}